OBJECT_NAME,OBJECT_ID,EPOCH,MEAN_MOTION,ECCENTRICITY,INCLINATION,RA_OF_ASC_NODE,ARG_OF_PERICENTER,MEAN_ANOMALY,EPHEMERIS_TYPE,CLASSIFICATION_TYPE,NORAD_CAT_ID,ELEMENT_SET_NO,REV_AT_EPOCH,BSTAR,MEAN_MOTION_DOT,MEAN_MOTION_DDOT
PEGASUS R/B,1993-009C,2026-06-24T22:12:49.481280,14.57979208,.00439568,24.9787,41.3182,190.2149,169.7470,0,U,22491,999,77076,.12310755E-3,.789E-5,0
EYESAT A (AO-27),1993-061C,2026-06-25T04:20:35.012256,14.30944177,.0009517,98.6877,243.5916,79.1910,281.0343,0,U,22825,999,70814,.46862068E-4,.79E-6,0
ITAMSAT (IO-26),1993-061D,2026-06-25T03:47:30.179616,14.31371311,.00099205,98.6825,243.4869,64.2862,295.9344,0,U,22826,999,70845,.48577496E-4,.84E-6,0
RADIO ROSTO (RS15),1994-085A,2026-06-25T00:13:24.388320,11.27583413,.01562041,64.8179,290.5659,2.4278,357.7371,0,U,23439,999,29678,-.10565119E-3,-.46E-6,0
JAS-2 (FO-29),1996-046B,2026-06-25T03:33:17.276832,13.53274732,.03509147,98.5234,23.9293,75.8351,288.1508,0,U,24278,999,47424,.17093374E-4,-.16E-6,0
FORTE,1997-047A,2026-06-25T05:17:34.348416,14.27948050,.00246333,69.9540,355.8750,267.6589,92.1713,0,U,24920,999,49983,.895964E-4,.165E-5,0
NOAA 15,1998-030A,2026-06-25T07:38:37.732128,14.27148805,.00095483,98.5063,196.7314,329.9228,30.1404,0,U,25338,999,46245,.57355608E-4,.97E-6,0
TECHSAT 1B (GO-32),1998-043D,2026-06-24T17:18:03.479040,14.24429629,.00014269,99.0070,168.6697,148.6020,211.5244,0,U,25397,999,45240,.39040757E-4,.44E-6,0
ISS (ZARYA),1998-067A,2026-06-25T04:30:07.020000,15.49415960,.00044086,51.6326,260.4913,228.8642,131.1966,0,U,25544,999,57299,.17725469E-3,.947E-4,0
ORSTED,1999-008B,2026-06-25T05:52:47.095392,14.51813698,.01324531,96.4822,81.9299,160.1190,200.5243,0,U,25635,999,44313,.10137358E-3,.425E-5,0
LANDSAT 7,1999-020A,2026-06-25T07:12:48.919680,14.63923120,.00018175,97.8580,179.5642,85.8869,290.9373,0,U,25682,999,44703,.85740343E-4,.404E-5,0
ORBCOMM FM36,1999-065E,2026-06-24T02:52:14.608128,14.39208094,.00046413,45.0375,126.6748,347.3943,12.6790,0,U,25984,999,38798,.27936124E-3,.731E-5,0
DMSP 5D-3 F15 (USA 147),1999-067A,2026-06-25T06:29:22.051968,14.17566655,.00095481,98.9957,214.9261,345.6874,76.5435,0,U,25991,999,37179,.85394047E-4,.128E-5,0
OPAL (OO-38),2000-004C,2026-06-25T00:57:29.894976,14.37967390,.00360269,100.1909,114.3108,14.0830,346.1348,0,U,26063,999,38441,.60073821E-4,.124E-5,0
IMAGE,2000-017A,2026-06-21T10:12:18.318528,1.68666410,.74289842,94.2324,315.4279,287.3239,9.1864,0,U,26113,999,16157,0,-.86E-6,0
CLUSTER II-FM7 (SAMBA),2000-041A,2026-06-26T01:33:12.192480,0.44870397,.90618129,149.9012,52.3742,269.6784,359.6419,0,U,26410,999,2035,0,.5882E-4,0
CLUSTER II-FM8 (TANGO),2000-045B,2026-06-21T22:36:54.211968,0.44420336,.90628137,150.1352,52.7746,269.8657,2.6673,0,U,26464,999,2033,0,.4849E-4,0
MEGSAT-1,2000-057B,2026-06-25T04:21:54.447552,15.05533409,.0042469,64.5505,43.4936,282.8051,76.8322,0,U,26546,999,39886,.19770235E-3,.2729E-4,0
PHASE 3D (AO-40),2000-072B,2026-06-23T16:46:40.478304,1.25588411,.79314754,9.4179,349.9114,180.5159,177.6992,0,U,26609,999,11759,0,-.7E-6,0
ODIN,2001-007A,2026-06-25T02:08:31.251840,15.78592061,.00066316,97.3797,217.5522,132.9735,227.2089,0,U,26702,999,39064,.14704525E-2,.262742E-2,0
OMNI-M1,2001-026A,2026-06-21T13:26:06.294048,3.92401787,.00140727,44.8291,244.2559,54.4534,305.7323,0,U,26857,999,20574,0,-.2E-6,0
PCSAT (NO-44),2001-043C,2026-06-25T06:16:22.596960,14.31958489,.00060499,67.0494,223.3886,265.0171,95.0240,0,U,26931,999,29160,.62534755E-4,.85E-6,0
PROBA-1,2001-049B,2026-06-25T07:13:21.251424,15.07528635,.00563197,97.9604,185.1164,95.3145,265.4511,0,U,26958,999,34484,.23457103E-3,.3623E-4,0
SPOT 5,2002-021A,2026-06-25T03:35:47.535072,14.54755799,.01282369,97.9842,214.6605,251.4829,107.2400,0,U,27421,999,26400,.74027869E-4,.303E-5,0
FENGYUN 1D,2002-024B,2026-06-25T00:34:06.460032,14.10225342,.00147613,98.9515,226.3185,217.7965,142.2170,0,U,27431,999,24058,.17941E-5,-.41E-6,0
SAUDISAT 1C (SO-50),2002-058C,2026-06-25T04:18:46.446336,14.83062534,.00750794,64.5519,104.2569,260.9817,98.2786,0,U,27607,999,26564,.12668282E-3,.928E-5,0
CORIOLIS,2003-001A,2026-06-25T07:12:56.946240,14.19946883,.00138467,98.7126,183.0615,184.7389,175.3659,0,U,27640,999,21537,.65985301E-4,.97E-6,0
CUTE-1 (CO-55),2003-031E,2026-06-25T06:08:54.256128,14.24340250,.00100211,98.6736,184.7136,155.2513,204.9149,0,U,27844,999,19282,.13960202E-3,.279E-5,0
CUBESAT XI-IV (CO-57),2003-031J,2026-06-24T23:13:17.052672,14.23624582,.00095369,98.6767,184.1351,174.0960,186.0333,0,U,27848,999,19248,.11864619E-3,.227E-5,0
MOZHAETS 4 (RS22),2003-042A,2026-06-25T07:19:17.368896,14.73479266,.00100106,98.3476,0.8932,240.4770,244.0899,0,U,27939,999,21674,.14418465E-3,.883E-5,0
